{"type": "FeatureCollection", "features": [ {"type": "Feature", "properties": {"norad_id": 66505, "name": "STARLINK-34766", "group": "last-30-days", "lat": -30.297762893073404, "lon": 93.04104848831103, "alt_km": 417.09993703154396, "timestamp": "2025-12-11T13:55:00.913554+00:00", "meta": {"OBJECT_NAME": "STARLINK-34766", "OBJECT_ID": "2025-263W", "EPOCH": "2025-12-11T06:00:02.999808", "MEAN_MOTION": 15.50610792, "ECCENTRICITY": 0.00016376, "INCLINATION": 43.0007, "RA_OF_ASC_NODE": 133.8013, "ARG_OF_PERICENTER": 259.3183, "MEAN_ANOMALY": 9.6036, "EPHEMERIS_TYPE": 0, "CLASSIFICATION_TYPE": "U", "NORAD_CAT_ID": 66505, "ELEMENT_SET_NO": 999, "REV_AT_EPOCH": 539, "BSTAR": -0.0012737849, "MEAN_MOTION_DOT": -0.00074447, "MEAN_MOTION_DDOT": 0}, "tle": {"line1": "1 66505U 25263W   25345.25003472 -.00074447  00000+0 -12738-2 0  9992", "line2": "2 66505  43.0007 133.8013 0001637 259.3183   9.6036 15.50610792  5392"}}, "geometry": {"type": "Point", "coordinates": [93.04104848831103, -30.297762893073404]}}, {"type": "Feature", "properties": {"norad_id": 66506, "name": "STARLINK-34765", "group": "last-30-days", "lat": -29.262724704394145, "lon": 94.90523998663755, "alt_km": 417.0344714657449, "timestamp": "2025-12-11T13:55:00.913565+00:00", "meta": {"OBJECT_NAME": "STARLINK-34765", "OBJECT_ID": "2025-263X", "EPOCH": "2025-12-11T06:00:02.999808", "MEAN_MOTION": 15.50631422, "ECCENTRICITY": 0.00015791, "INCLINATION": 43.0007, "RA_OF_ASC_NODE": 133.7969, "ARG_OF_PERICENTER": 262.7771, "MEAN_ANOMALY": 8.0596, "EPHEMERIS_TYPE": 0, "CLASSIFICATION_TYPE": "U", "NORAD_CAT_ID": 66506, "ELEMENT_SET_NO": 999, "REV_AT_EPOCH": 539, "BSTAR": -0.0018168911, "MEAN_MOTION_DOT": -0.00105702, "MEAN_MOTION_DDOT": 0}, "tle": {"line1": "1 66506U 25263X   25345.25003472 -.00105702  00000+0 -18169-2 0  9996", "line2": "2 66506  43.0007 133.7969 0001579 262.7771   8.0596 15.50631422  5395"}}, "geometry": {"type": "Point", "coordinates": [94.90523998663755, -29.262724704394145]}}, {"type": "Feature", "properties": {"norad_id": 66507, "name": "STARLINK-34767", "group": "last-30-days", "lat": -28.906965247135656, "lon": 95.52517296927661, "alt_km": 425.01282226733565, "timestamp": "2025-12-11T13:55:00.913576+00:00", "meta": {"OBJECT_NAME": "STARLINK-34767", "OBJECT_ID": "2025-263Y", "EPOCH": "2025-12-11T06:00:02.999808", "MEAN_MOTION": 15.49262822, "ECCENTRICITY": 0.00016569, "INCLINATION": 43.0006, "RA_OF_ASC_NODE": 133.7877, "ARG_OF_PERICENTER": 263.9662, "MEAN_ANOMALY": 10.0134, "EPHEMERIS_TYPE": 0, "CLASSIFICATION_TYPE": "U", "NORAD_CAT_ID": 66507, "ELEMENT_SET_NO": 999, "REV_AT_EPOCH": 539, "BSTAR": -0.04202207, "MEAN_MOTION_DOT": -0.02089881, "MEAN_MOTION_DDOT": 0}, "tle": {"line1": "1 66507U 25263Y   25345.25003472 -.02089881  00000+0 -42022-1 0  9992", "line2": "2 66507  43.0006 133.7877 0001656 263.9662  10.0134 15.49262822  5394"}}, "geometry": {"type": "Point", "coordinates": [95.52517296927661, -28.906965247135656]}}, {"type": "Feature", "properties": {"norad_id": 66508, "name": "STARLINK-35608", "group": "last-30-days", "lat": -23.765855343519902, "lon": 103.64371349838828, "alt_km": 416.7774558422816, "timestamp": "2025-12-11T13:55:00.913586+00:00", "meta": {"OBJECT_NAME": "STARLINK-35608", "OBJECT_ID": "2025-263Z", "EPOCH": "2025-12-11T06:00:02.999808", "MEAN_MOTION": 15.50612902, "ECCENTRICITY": 0.00015711, "INCLINATION": 43.0006, "RA_OF_ASC_NODE": 133.7725, "ARG_OF_PERICENTER": 263.7116, "MEAN_ANOMALY": 16.7146, "EPHEMERIS_TYPE": 0, "CLASSIFICATION_TYPE": "U", "NORAD_CAT_ID": 66508, "ELEMENT_SET_NO": 999, "REV_AT_EPOCH": 539, "BSTAR": -0.0013511903, "MEAN_MOTION_DOT": -0.00078911, "MEAN_MOTION_DDOT": 0}, "tle": {"line1": "1 66508U 25263Z   25345.25003472 -.00078911  00000+0 -13512-2 0  9996", "line2": "2 66508  43.0006 133.7725 0001571 263.7116  16.7146 15.50612902  5391"}}, "geometry": {"type": "Point", "coordinates": [103.64371349838828, -23.765855343519902]}}, {"type": "Feature", "properties": {"norad_id": 66509, "name": "STARLINK-35598", "group": "last-30-days", "lat": -19.028845756374984, "lon": 110.09923366008873, "alt_km": 416.46992153192696, "timestamp": "2025-12-11T13:55:00.913596+00:00", "meta": {"OBJECT_NAME": "STARLINK-35598", "OBJECT_ID": "2025-263AA", "EPOCH": "2025-12-11T06:00:02.999808", "MEAN_MOTION": 15.50616648, "ECCENTRICITY": 0.0001618, "INCLINATION": 43.0005, "RA_OF_ASC_NODE": 133.7513, "ARG_OF_PERICENTER": 265.6512, "MEAN_ANOMALY": 22.4448, "EPHEMERIS_TYPE": 0, "CLASSIFICATION_TYPE": "U", "NORAD_CAT_ID": 66509, "ELEMENT_SET_NO": 999, "REV_AT_EPOCH": 539, "BSTAR": -0.0015161408, "MEAN_MOTION_DOT": -0.00088409, "MEAN_MOTION_DDOT": 0}, "tle": {"line1": "1 66509U 25263AA  25345.25003472 -.00088409  00000+0 -15161-2 0  9992", "line2": "2 66509  43.0005 133.7513 0001618 265.6512  22.4448 15.50616648  5399"}}, "geometry": {"type": "Point", "coordinates": [110.09923366008873, -19.028845756374984]}}, {"type": "Feature", "properties": {"norad_id": 66510, "name": "STARLINK-35600", "group": "last-30-days", "lat": -22.607706518778794, "lon": 105.29373870503116, "alt_km": 416.885574610993, "timestamp": "2025-12-11T13:55:00.913606+00:00", "meta": {"OBJECT_NAME": "STARLINK-35600", "OBJECT_ID": "2025-263AB", "EPOCH": "2025-12-11T06:00:02.999808", "MEAN_MOTION": 15.50599418, "ECCENTRICITY": 0.00016074, "INCLINATION": 43.0006, "RA_OF_ASC_NODE": 133.7661, "ARG_OF_PERICENTER": 253.6213, "MEAN_ANOMALY": 28.7265, "EPHEMERIS_TYPE": 0, "CLASSIFICATION_TYPE": "U", "NORAD_CAT_ID": 66510, "ELEMENT_SET_NO": 999, "REV_AT_EPOCH": 539, "BSTAR": -0.0010480225, "MEAN_MOTION_DOT": -0.00061389, "MEAN_MOTION_DDOT": 0}, "tle": {"line1": "1 66510U 25263AB  25345.25003472 -.00061389  00000+0 -10480-2 0  9991", "line2": "2 66510  43.0006 133.7661 0001607 253.6213  28.7265 15.50599418  5390"}}, "geometry": {"type": "Point", "coordinates": [105.29373870503116, -22.607706518778794]}}, {"type": "Feature", "properties": {"norad_id": 66511, "name": "STARLINK-35444", "group": "last-30-days", "lat": -20.24003707784976, "lon": 108.5190364877238, "alt_km": 416.64920596610045, "timestamp": "2025-12-11T13:55:00.913616+00:00", "meta": {"OBJECT_NAME": "STARLINK-35444", "OBJECT_ID": "2025-263AC", "EPOCH": "2025-12-11T06:00:02.999808", "MEAN_MOTION": 15.50601227, "ECCENTRICITY": 0.00015477, "INCLINATION": 43.0006, "RA_OF_ASC_NODE": 133.7572, "ARG_OF_PERICENTER": 260.7401, "MEAN_ANOMALY": 25.4411, "EPHEMERIS_TYPE": 0, "CLASSIFICATION_TYPE": "U", "NORAD_CAT_ID": 66511, "ELEMENT_SET_NO": 999, "REV_AT_EPOCH": 539, "BSTAR": -0.001123383, "MEAN_MOTION_DOT": -0.00065747, "MEAN_MOTION_DDOT": 0}, "tle": {"line1": "1 66511U 25263AC  25345.25003472 -.00065747  00000+0 -11234-2 0  9992", "line2": "2 66511  43.0006 133.7572 0001547 260.7401  25.4411 15.50601227  5392"}}, "geometry": {"type": "Point", "coordinates": [108.5190364877238, -20.24003707784976]}}, {"type": "Feature", "properties": {"norad_id": 66512, "name": "STARLINK-35366", "group": "last-30-days", "lat": -17.813207147752507, "lon": 111.6469639550941, "alt_km": 416.39322102193364, "timestamp": "2025-12-11T13:55:00.913625+00:00", "meta": {"OBJECT_NAME": "STARLINK-35366", "OBJECT_ID": "2025-263AD", "EPOCH": "2025-12-11T06:00:02.999808", "MEAN_MOTION": 15.50600027, "ECCENTRICITY": 0.00016119, "INCLINATION": 43.0005, "RA_OF_ASC_NODE": 133.7471, "ARG_OF_PERICENTER": 265.5918, "MEAN_ANOMALY": 24.4234, "EPHEMERIS_TYPE": 0, "CLASSIFICATION_TYPE": "U", "NORAD_CAT_ID": 66512, "ELEMENT_SET_NO": 999, "REV_AT_EPOCH": 539, "BSTAR": -0.0010402057, "MEAN_MOTION_DOT": -0.00060939, "MEAN_MOTION_DDOT": 0}, "tle": {"line1": "1 66512U 25263AD  25345.25003472 -.00060939  00000+0 -10402-2 0  9997", "line2": "2 66512  43.0005 133.7471 0001611 265.5918  24.4234 15.50600027  5397"}}, "geometry": {"type": "Point", "coordinates": [111.6469639550941, -17.813207147752507]}}, {"type": "Feature", "properties": {"norad_id": 66513, "name": "STARLINK-35692", "group": "last-30-days", "lat": -21.43027335969858, "lon": 106.92156367649727, "alt_km": 416.6914772308064, "timestamp": "2025-12-11T13:55:00.913635+00:00", "meta": {"OBJECT_NAME": "STARLINK-35692", "OBJECT_ID": "2025-263AE", "EPOCH": "2025-12-11T06:00:02.999808", "MEAN_MOTION": 15.50629081, "ECCENTRICITY": 0.00015979, "INCLINATION": 43.0006, "RA_OF_ASC_NODE": 133.7619, "ARG_OF_PERICENTER": 260.7122, "MEAN_ANOMALY": 23.5359, "EPHEMERIS_TYPE": 0, "CLASSIFICATION_TYPE": "U", "NORAD_CAT_ID": 66513, "ELEMENT_SET_NO": 999, "REV_AT_EPOCH": 539, "BSTAR": -0.0017538051, "MEAN_MOTION_DOT": -0.00102082, "MEAN_MOTION_DDOT": 0}, "tle": {"line1": "1 66513U 25263AE  25345.25003472 -.00102082  00000+0 -17538-2 0  9991", "line2": "2 66513  43.0006 133.7619 0001597 260.7122  23.5359 15.50629081  5399"}}, "geometry": {"type": "Point", "coordinates": [106.92156367649727, -21.43027335969858]}}, {"type": "Feature", "properties": {"norad_id": 66514, "name": "SENTINEL-6B", "group": "last-30-days", "lat": 14.160172153150492, "lon": -21.61286466301465, "alt_km": 1328.7682771174932, "timestamp": "2025-12-11T13:55:00.913650+00:00", "meta": {"OBJECT_NAME": "SENTINEL-6B", "OBJECT_ID": "2025-264A", "EPOCH": "2025-12-08T23:22:28.347744", "MEAN_MOTION": 12.8403254, "ECCENTRICITY": 0.00210881, "INCLINATION": 66.0391, "RA_OF_ASC_NODE": 170.2706, "ARG_OF_PERICENTER": 268.225, "MEAN_ANOMALY": 91.6352, "EPHEMERIS_TYPE": 0, "CLASSIFICATION_TYPE": "U", "NORAD_CAT_ID": 66514, "ELEMENT_SET_NO": 999, "REV_AT_EPOCH": 280, "BSTAR": -0.0054273268, "MEAN_MOTION_DOT": -1.368e-05, "MEAN_MOTION_DDOT": 0}, "tle": {"line1": "1 66514U 25264A   25342.97393921 -.00001368  00000+0 -54273-2 0  9992", "line2": "2 66514  66.0391 170.2706 0021088 268.2250  91.6352 12.84032540  2801"}}, "geometry": {"type": "Point", "coordinates": [-21.61286466301465, 14.160172153150492]}}]}